[{"OBJECT_NAME":"METOP-C","OBJECT_ID":"2018-087A","EPOCH":"2026-03-03T03:13:38.412768","MEAN_MOTION":14.21494386,"ECCENTRICITY":0.0002155,"INCLINATION":98.6779,"RA_OF_ASC_NODE":123.6183,"ARG_OF_PERICENTER":109.0588,"MEAN_ANOMALY":251.0823,"EPHEMERIS_TYPE":0,"CLASSIFICATION_TYPE":"U","NORAD_CAT_ID":43689,"ELEMENT_SET_NO":999,"REV_AT_EPOCH":37976,"BSTAR":8.1006e-5,"MEAN_MOTION_DOT":1.34e-6,"MEAN_MOTION_DDOT":0},{"OBJECT_NAME":"GEO-KOMPSAT-2A","OBJECT_ID":"2018-100A","EPOCH":"2026-03-01T23:19:22.738080","MEAN_MOTION":1.00270368,"ECCENTRICITY":0.0001336,"INCLINATION":0.018,"RA_OF_ASC_NODE":67.6811,"ARG_OF_PERICENTER":333.425,"MEAN_ANOMALY":236.7399,"EPHEMERIS_TYPE":0,"CLASSIFICATION_TYPE":"U","NORAD_CAT_ID":43823,"ELEMENT_SET_NO":999,"REV_AT_EPOCH":2655,"BSTAR":0,"MEAN_MOTION_DOT":-3.62e-6,"MEAN_MOTION_DDOT":0},{"OBJECT_NAME":"METEOR-M2 2","OBJECT_ID":"2019-038A","EPOCH":"2026-03-03T05:48:30.396672","MEAN_MOTION":14.24330904,"ECCENTRICITY":0.0001255,"INCLINATION":98.907,"RA_OF_ASC_NODE":48.0046,"ARG_OF_PERICENTER":15.1716,"MEAN_ANOMALY":344.9499,"EPHEMERIS_TYPE":0,"CLASSIFICATION_TYPE":"U","NORAD_CAT_ID":44387,"ELEMENT_SET_NO":999,"REV_AT_EPOCH":34621,"BSTAR":0.00011245,"MEAN_MOTION_DOT":2.14e-6,"MEAN_MOTION_DDOT":0},{"OBJECT_NAME":"ARKTIKA-M 1","OBJECT_ID":"2021-016A","EPOCH":"2026-03-02T19:44:56.440608","MEAN_MOTION":2.00620868,"ECCENTRICITY":0.72428147,"INCLINATION":63.2036,"RA_OF_ASC_NODE":72.8571,"ARG_OF_PERICENTER":269.4536,"MEAN_ANOMALY":15.2019,"EPHEMERIS_TYPE":0,"CLASSIFICATION_TYPE":"U","NORAD_CAT_ID":47719,"ELEMENT_SET_NO":999,"REV_AT_EPOCH":3665,"BSTAR":0,"MEAN_MOTION_DOT":-1.08e-6,"MEAN_MOTION_DDOT":0},{"OBJECT_NAME":"FENGYUN 3E","OBJECT_ID":"2021-062A","EPOCH":"2026-03-03T03:33:57.342240","MEAN_MOTION":14.19892418,"ECCENTRICITY":0.000248,"INCLINATION":98.7506,"RA_OF_ASC_NODE":66.7354,"ARG_OF_PERICENTER":54.073,"MEAN_ANOMALY":306.0676,"EPHEMERIS_TYPE":0,"CLASSIFICATION_TYPE":"U","NORAD_CAT_ID":49008,"ELEMENT_SET_NO":999,"REV_AT_EPOCH":24153,"BSTAR":3.5329e-5,"MEAN_MOTION_DOT":3.1e-7,"MEAN_MOTION_DDOT":0},{"OBJECT_NAME":"GOES 18","OBJECT_ID":"2022-021A","EPOCH":"2026-03-03T03:09:22.762944","MEAN_MOTION":1.00271419,"ECCENTRICITY":5.81e-5,"INCLINATION":0.0269,"RA_OF_ASC_NODE":75.318,"ARG_OF_PERICENTER":316.5209,"MEAN_ANOMALY":39.3881,"EPHEMERIS_TYPE":0,"CLASSIFICATION_TYPE":"U","NORAD_CAT_ID":51850,"ELEMENT_SET_NO":999,"REV_AT_EPOCH":552,"BSTAR":0,"MEAN_MOTION_DOT":8.1e-7,"MEAN_MOTION_DDOT":0},{"OBJECT_NAME":"NOAA 21 (JPSS-2)","OBJECT_ID":"2022-150A","EPOCH":"2026-03-03T02:19:05.666304","MEAN_MOTION":14.19550087,"ECCENTRICITY":0.0002501,"INCLINATION":98.7548,"RA_OF_ASC_NODE":2.4383,"ARG_OF_PERICENTER":118.3069,"MEAN_ANOMALY":241.8359,"EPHEMERIS_TYPE":0,"CLASSIFICATION_TYPE":"U","NORAD_CAT_ID":54234,"ELEMENT_SET_NO":999,"REV_AT_EPOCH":17149,"BSTAR":7.3245e-5,"MEAN_MOTION_DOT":1.1e-6,"MEAN_MOTION_DDOT":0},{"OBJECT_NAME":"METEOSAT-12 (MTG-I1)","OBJECT_ID":"2022-170C","EPOCH":"2026-03-03T02:05:36.377376","MEAN_MOTION":1.00274625,"ECCENTRICITY":0.0001909,"INCLINATION":0.7443,"RA_OF_ASC_NODE":28.9468,"ARG_OF_PERICENTER":281.6757,"MEAN_ANOMALY":241.345,"EPHEMERIS_TYPE":0,"CLASSIFICATION_TYPE":"U","NORAD_CAT_ID":54743,"ELEMENT_SET_NO":999,"REV_AT_EPOCH":1191,"BSTAR":0,"MEAN_MOTION_DOT":-2.2e-7,"MEAN_MOTION_DDOT":0},{"OBJECT_NAME":"TIANMU-1 03","OBJECT_ID":"2023-039A","EPOCH":"2026-03-03T04:54:12.174048","MEAN_MOTION":15.43904258,"ECCENTRICITY":0.0003978,"INCLINATION":97.5163,"RA_OF_ASC_NODE":232.3055,"ARG_OF_PERICENTER":119.8139,"MEAN_ANOMALY":240.3504,"EPHEMERIS_TYPE":0,"CLASSIFICATION_TYPE":"U","NORAD_CAT_ID":55973,"ELEMENT_SET_NO":999,"REV_AT_EPOCH":16446,"BSTAR":0.00046605,"MEAN_MOTION_DOT":0.00021117,"MEAN_MOTION_DDOT":0},{"OBJECT_NAME":"TIANMU-1 04","OBJECT_ID":"2023-039B","EPOCH":"2026-03-03T05:30:27.099648","MEAN_MOTION":15.44310168,"ECCENTRICITY":0.0004633,"INCLINATION":97.5096,"RA_OF_ASC_NODE":231.4936,"ARG_OF_PERICENTER":116.0766,"MEAN_ANOMALY":244.0959,"EPHEMERIS_TYPE":0,"CLASSIFICATION_TYPE":"U","NORAD_CAT_ID":55974,"ELEMENT_SET_NO":999,"REV_AT_EPOCH":16447,"BSTAR":0.0004867,"MEAN_MOTION_DOT":0.00022368,"MEAN_MOTION_DDOT":0},{"OBJECT_NAME":"TIANMU-1 05","OBJECT_ID":"2023-039C","EPOCH":"2026-03-03T04:20:07.632096","MEAN_MOTION":15.43844937,"ECCENTRICITY":0.000374,"INCLINATION":97.5143,"RA_OF_ASC_NODE":231.9348,"ARG_OF_PERICENTER":137.6093,"MEAN_ANOMALY":222.5444,"EPHEMERIS_TYPE":0,"CLASSIFICATION_TYPE":"U","NORAD_CAT_ID":55975,"ELEMENT_SET_NO":999,"REV_AT_EPOCH":16444,"BSTAR":0.00046665,"MEAN_MOTION_DOT":0.00021102,"MEAN_MOTION_DDOT":0},{"OBJECT_NAME":"TIANMU-1 06","OBJECT_ID":"2023-039D","EPOCH":"2026-03-03T05:30:20.828736","MEAN_MOTION":15.44340214,"ECCENTRICITY":0.0004032,"INCLINATION":97.5153,"RA_OF_ASC_NODE":232.5198,"ARG_OF_PERICENTER":132.6215,"MEAN_ANOMALY":227.5373,"EPHEMERIS_TYPE":0,"CLASSIFICATION_TYPE":"U","NORAD_CAT_ID":55976,"ELEMENT_SET_NO":999,"REV_AT_EPOCH":16447,"BSTAR":0.00048171,"MEAN_MOTION_DOT":0.00022157,"MEAN_MOTION_DDOT":0},{"OBJECT_NAME":"FENGYUN 3G","OBJECT_ID":"2023-055A","EPOCH":"2026-03-03T03:22:35.338656","MEAN_MOTION":15.54118457,"ECCENTRICITY":0.001069,"INCLINATION":49.9933,"RA_OF_ASC_NODE":172.8165,"ARG_OF_PERICENTER":343.9832,"MEAN_ANOMALY":16.0796,"EPHEMERIS_TYPE":0,"CLASSIFICATION_TYPE":"U","NORAD_CAT_ID":56232,"ELEMENT_SET_NO":999,"REV_AT_EPOCH":16352,"BSTAR":0.00053988,"MEAN_MOTION_DOT":0.0003554,"MEAN_MOTION_DDOT":0},{"OBJECT_NAME":"METEOR-M2 3","OBJECT_ID":"2023-091A","EPOCH":"2026-03-03T05:06:34.167744","MEAN_MOTION":14.24036849,"ECCENTRICITY":0.0005025,"INCLINATION":98.6228,"RA_OF_ASC_NODE":119.2948,"ARG_OF_PERICENTER":113.9322,"MEAN_ANOMALY":246.2384,"EPHEMERIS_TYPE":0,"CLASSIFICATION_TYPE":"U","NORAD_CAT_ID":57166,"ELEMENT_SET_NO":999,"REV_AT_EPOCH":13943,"BSTAR":2.7848e-5,"MEAN_MOTION_DOT":2.1e-7,"MEAN_MOTION_DDOT":0},{"OBJECT_NAME":"TIANMU-1 07","OBJECT_ID":"2023-101A","EPOCH":"2026-03-03T04:07:12.220608","MEAN_MOTION":15.29187787,"ECCENTRICITY":0.0004733,"INCLINATION":97.2739,"RA_OF_ASC_NODE":115.2658,"ARG_OF_PERICENTER":146.5396,"MEAN_ANOMALY":213.6144,"EPHEMERIS_TYPE":0,"CLASSIFICATION_TYPE":"U","NORAD_CAT_ID":57399,"ELEMENT_SET_NO":999,"REV_AT_EPOCH":14544,"BSTAR":0.00031324,"MEAN_MOTION_DOT":8.803e-5,"MEAN_MOTION_DDOT":0},{"OBJECT_NAME":"TIANMU-1 08","OBJECT_ID":"2023-101B","EPOCH":"2026-03-02T19:32:57.433632","MEAN_MOTION":15.29213455,"ECCENTRICITY":0.00062904,"INCLINATION":97.273,"RA_OF_ASC_NODE":114.6953,"ARG_OF_PERICENTER":145.3494,"MEAN_ANOMALY":214.8157,"EPHEMERIS_TYPE":0,"CLASSIFICATION_TYPE":"U","NORAD_CAT_ID":57400,"ELEMENT_SET_NO":999,"REV_AT_EPOCH":14538,"BSTAR":1.9083121e-5,"MEAN_MOTION_DOT":4.69e-6,"MEAN_MOTION_DDOT":0},{"OBJECT_NAME":"TIANMU-1 09","OBJECT_ID":"2023-101C","EPOCH":"2026-03-01T19:32:38.560416","MEAN_MOTION":15.29179768,"ECCENTRICITY":0.00051148,"INCLINATION":97.2691,"RA_OF_ASC_NODE":113.1975,"ARG_OF_PERICENTER":156.2312,"MEAN_ANOMALY":203.9165,"EPHEMERIS_TYPE":0,"CLASSIFICATION_TYPE":"U","NORAD_CAT_ID":57401,"ELEMENT_SET_NO":999,"REV_AT_EPOCH":14523,"BSTAR":2.6964044e-5,"MEAN_MOTION_DOT":6.91e-6,"MEAN_MOTION_DDOT":0}]
