METOP-C                 
1 43689U 18087A   26062.13447237  .00000134  00000+0  81006-4 0  9997
2 43689  98.6779 123.6183 0002155 109.0588 251.0823 14.21494386379761
GEO-KOMPSAT-2A          
1 43823U 18100A   26060.97179095 -.00000362  00000+0  00000+0 0  9991
2 43823   0.0180  67.6811 0001336 333.4250 236.7399  1.00270368 26557
METEOR-M2 2             
1 44387U 19038A   26062.24201848  .00000214  00000+0  11245-3 0  9994
2 44387  98.9070  48.0046 0001255  15.1716 344.9499 14.24330904346215
ARKTIKA-M 1             
1 47719U 21016A   26061.82287547 -.00000108  00000+0  00000+0 0  9994
2 47719  63.2036  72.8571 7242814 269.4536  15.2019  2.00620868 36653
FENGYUN 3E              
1 49008U 21062A   26062.14858035  .00000031  00000+0  35329-4 0  9991
2 49008  98.7506  66.7354 0002480  54.0730 306.0676 14.19892418241532
GOES 18                 
1 51850U 22021A   26062.13151346  .00000081  00000+0  00000+0 0  9993
2 51850   0.0269  75.3180 0000581 316.5209  39.3881  1.00271419  5521
NOAA 21 (JPSS-2)        
1 54234U 22150A   26062.09659336  .00000110  00000+0  73245-4 0  9991
2 54234  98.7548   2.4383 0002501 118.3069 241.8359 14.19550087171491
METEOSAT-12 (MTG-I1)    
1 54743U 22170C   26062.08722659 -.00000022  00000+0  00000+0 0  9993
2 54743   0.7443  28.9468 0001909 281.6757 241.3450  1.00274625 11913
TIANMU-1 03             
1 55973U 23039A   26062.20430757  .00021117  00000+0  46605-3 0  9995
2 55973  97.5163 232.3055 0003978 119.8139 240.3504 15.43904258164461
TIANMU-1 04             
1 55974U 23039B   26062.22948032  .00022368  00000+0  48670-3 0  9991
2 55974  97.5096 231.4936 0004633 116.0766 244.0959 15.44310168164477
TIANMU-1 05             
1 55975U 23039C   26062.18064389  .00021102  00000+0  46665-3 0  9998
2 55975  97.5143 231.9348 0003740 137.6093 222.5444 15.43844937164445
TIANMU-1 06             
1 55976U 23039D   26062.22940774  .00022157  00000+0  48171-3 0  9990
2 55976  97.5153 232.5198 0004032 132.6215 227.5373 15.44340214164472
FENGYUN 3G              
1 56232U 23055A   26062.14068679  .00035540  00000+0  53988-3 0  9992
2 56232  49.9933 172.8165 0010690 343.9832  16.0796 15.54118457163522
METEOR-M2 3             
1 57166U 23091A   26062.21289546  .00000021  00000+0  27848-4 0  9998
2 57166  98.6228 119.2948 0005025 113.9322 246.2384 14.24036849139439
TIANMU-1 07             
1 57399U 23101A   26062.17166922  .00008803  00000+0  31324-3 0  9994
2 57399  97.2739 115.2658 0004733 146.5396 213.6144 15.29187787145445
TIANMU-1 08             
1 57400U 23101B   26061.81455363  .00000469  00000+0  19083-4 0  9996
2 57400  97.2730 114.6953 0006290 145.3494 214.8157 15.29213455145388
TIANMU-1 09             
1 57401U 23101C   26060.81433519  .00000691  00000+0  26964-4 0  9998
2 57401  97.2691 113.1975 0005114 156.2312 203.9165 15.29179768145237
